NORAD_CAT_ID,OBJECT_NAME,OBJECT_TYPE,EPOCH,MEAN_MOTION,ECCENTRICITY,INCLINATION,RA_OF_ASC_NODE,ARG_OF_PERICENTER,MEAN_ANOMALY,BSTAR,MEAN_MOTION_DOT,MEAN_MOTION_DDOT,TLE_LINE0,TLE_LINE1,TLE_LINE2,SEMIMAJOR_AXIS,PERIOD,APOGEE,PERIGEE,DECAYED
51150.0,STARLINK-3357,PAYLOAD,2024-06-11 13:23:20,15.0884373,0.0001297,53.2192,274.4439,79.2915,280.8224,0.00011185,1.493e-05,0.0,0 STARLINK-3357,1 51150U 22005AY  24163.55787823  .00001493  00000-0  11185-3 0  9998,2 51150  53.2192 274.4439 0001297  79.2915 280.8224 15.08843730132710,6917.869,95.437,540.631,538.837,0.0
51150.0,STARLINK-3357,PAYLOAD,2024-06-12 00:31:01,15.08863469,0.0001504,53.2191,272.3607,69.0547,291.0606,0.00014874,2.081e-05,0.0,0 STARLINK-3357,1 51150U 22005AY  24164.02154223  .00002081  00000-0  14874-3 0  9995,2 51150  53.2191 272.3607 0001504  69.0547 291.0606 15.08863469133891,6917.809,95.436,540.714,538.633,0.0
51150.0,STARLINK-3357,PAYLOAD,2024-06-12 06:52:36,15.08825477,0.0001563,53.2188,271.1748,81.5595,278.5574,3.1326e-05,2.1e-06,0.0,0 STARLINK-3357,1 51150U 22005AY  24164.28653038  .00000210  00000-0  31326-4 0  9995,2 51150  53.2188 271.1748 0001563  81.5595 278.5574 15.08825477132820,6917.925,95.438,540.871,538.709,0.0
51150.0,STARLINK-3357,PAYLOAD,2024-06-12 13:14:09,15.08821464,0.000102,53.2182,269.9861,80.1618,279.9489,-9.0488e-06,-4.32e-06,0.0,0 STARLINK-3357,1 51150U 22005AY  24164.55149433 -.00000432  00000-0 -90488-5 0  9997,2 51150  53.2182 269.9861 0001020  80.1618 279.9489 15.08821464133973,6917.937,95.439,540.508,539.096,0.0
51150.0,STARLINK-3357,PAYLOAD,2024-06-13 13:04:54,15.08847807,0.0001047,53.2169,265.5225,73.2744,286.8364,5.8537e-05,6.44e-06,0.0,0 STARLINK-3357,1 51150U 22005AY  24165.54507505  .00000644  00000-0  58537-4 0  9996,2 51150  53.2169 265.5225 0001047  73.2744 286.8364 15.08847807134122,6917.857,95.437,540.446,538.997,0.0
51150.0,STARLINK-3357,PAYLOAD,2024-06-14 12:55:42,15.08833794,0.0001203,53.2183,261.0625,85.8432,274.2698,0.00010118,1.323e-05,0.0,0 STARLINK-3357,1 51150U 22005AY  24166.53868318  .00001323  00000-0  10118-3 0  9995,2 51150  53.2183 261.0625 0001203  85.8432 274.2698 15.08833794133164,6917.899,95.438,540.597,538.932,0.0
51150.0,STARLINK-3357,PAYLOAD,2024-06-15 12:46:28,15.0884534,0.0001163,53.217,256.6015,82.9649,277.1475,7.5352e-05,9.12e-06,0.0,0 STARLINK-3357,1 51150U 22005AY  24167.53227709  .00000912  00000-0  75352-4 0  9994,2 51150  53.2170 256.6015 0001163  82.9649 277.1475 15.08845340134421,6917.864,95.437,540.534,538.925,0.0
51150.0,STARLINK-3357,PAYLOAD,2024-06-16 12:37:16,15.0883826,0.0001103,53.2161,252.1404,81.1666,278.9451,6.1202e-05,6.86e-06,0.0,0 STARLINK-3357,1 51150U 22005AY  24168.52588069  .00000686  00000-0  61202-4 0  9990,2 51150  53.2161 252.1404 0001103  81.1666 278.9451 15.08838260133467,6917.886,95.438,540.514,538.988,0.0
51150.0,STARLINK-3357,PAYLOAD,2024-06-16 22:09:34,15.08846444,0.0001129,53.2164,250.3564,80.5698,279.5421,0.00014821,2.072e-05,0.0,0 STARLINK-3357,1 51150U 22005AY  24168.92331600  .00002072  00000-0  14821-3 0  9996,2 51150  53.2164 250.3564 0001129  80.5698 279.5421 15.08846444133527,6917.861,95.437,540.507,538.945,0.0
51150.0,STARLINK-3357,PAYLOAD,2024-06-17 22:00:22,15.08841312,0.0001203,53.2175,245.8983,91.7402,268.3728,6.5071e-05,7.48e-06,0.0,0 STARLINK-3357,1 51150U 22005AY  24169.91692256  .00000748  00000-0  65071-4 0  9995,2 51150  53.2175 245.8983 0001203  91.7402 268.3728 15.08841312133674,6917.876,95.437,540.574,538.909,0.0
51150.0,STARLINK-3357,PAYLOAD,2024-06-18 12:18:50,15.08839725,0.0001275,53.218,243.2227,93.5721,266.5417,0.00015892,2.242e-05,0.0,0 STARLINK-3357,1 51150U 22005AY  24170.51308401  .00002242  00000-0  15892-3 0  9995,2 51150  53.2180 243.2227 0001275  93.5721 266.5417 15.08839725134879,6917.881,95.438,540.628,538.864,0.0
51150.0,STARLINK-3357,PAYLOAD,2024-06-18 21:51:08,15.08851442,0.0001321,53.2176,241.4378,81.7018,278.4124,0.00025289,3.74e-05,0.0,0 STARLINK-3357,1 51150U 22005AY  24170.91051712  .00003740  00000-0  25289-3 0  9994,2 51150  53.2176 241.4378 0001321  81.7018 278.4124 15.08851442133822,6917.845,95.437,540.624,538.797,0.0
51150.0,STARLINK-3357,PAYLOAD,2024-06-19 12:09:37,15.08832878,0.0001387,53.2171,238.7618,87.3857,272.7294,5.2372e-05,5.46e-06,0.0,0 STARLINK-3357,1 51150U 22005AY  24171.50668939  .00000546  00000-0  52372-4 0  9990,2 51150  53.2171 238.7618 0001387  87.3857 272.7294 15.08832878135029,6917.902,95.438,540.727,538.808,0.0
51150.0,STARLINK-3357,PAYLOAD,2024-06-19 13:45:00,15.08835711,0.000141,53.2169,238.4643,87.4506,272.6648,3.6504e-05,2.93e-06,0.0,0 STARLINK-3357,1 51150U 22005AY  24171.57292676  .00000293  00000-0  36504-4 0  9996,2 51150  53.2169 238.4643 0001410  87.4506 272.6648 15.08835711133928,6917.893,95.438,540.734,538.783,0.0
51150.0,STARLINK-3357,PAYLOAD,2024-06-20 13:35:47,15.08846285,0.0001241,53.2152,234.0028,84.8262,275.2872,0.00035773,5.411e-05,0.0,0 STARLINK-3357,1 51150U 22005AY  24172.56652577  .00005411  00000-0  35773-3 0  9999,2 51150  53.2152 234.0028 0001241  84.8262 275.2872 15.08846285134074,6917.861,95.437,540.585,538.868,0.0
51150.0,STARLINK-3357,PAYLOAD,2024-06-21 10:15:48,15.08843454,0.000159,53.2171,230.1361,97.5529,262.5644,0.00018946,2.729e-05,0.0,0 STARLINK-3357,1 51150U 22005AY  24173.42764700  .00002729  00000-0  18946-3 0  9999,2 51150  53.2171 230.1361 0001590  97.5529 262.5644 15.08843454135315,6917.87,95.437,540.835,538.635,0.0
51150.0,STARLINK-3357,PAYLOAD,2024-06-22 13:17:21,15.08843341,0.0001527,53.217,225.0817,99.2444,260.8721,8.7955e-05,1.112e-05,0.0,0 STARLINK-3357,1 51150U 22005AY  24174.55372643  .00001112  00000-0  87955-4 0  9997,2 51150  53.2170 225.0817 0001527  99.2444 260.8721 15.08843341135488,6917.87,95.437,540.792,538.679,0.0
51150.0,STARLINK-3357,PAYLOAD,2024-06-23 08:21:59,15.08836435,0.0001369,53.2168,221.5127,98.3545,261.7603,6.6839e-05,7.76e-06,0.0,0 STARLINK-3357,1 51150U 22005AY  24175.34861077  .00000776  00000-0  66839-4 0  9992,2 51150  53.2168 221.5127 0001369  98.3545 261.7603 15.08836435135605,6917.891,95.438,540.703,538.809,0.0
51150.0,STARLINK-3357,PAYLOAD,2024-06-23 13:08:09,15.08837103,0.0001343,53.2168,220.6208,94.815,265.2995,4.078e-05,3.61e-06,0.0,0 STARLINK-3357,1 51150U 22005AY  24175.54733092  .00000361  00000-0  40780-4 0  9996,2 51150  53.2168 220.6208 0001343  94.8150 265.2995 15.08837103134526,6917.889,95.438,540.683,538.825,0.0
51150.0,STARLINK-3357,PAYLOAD,2024-06-24 08:12:46,15.08841224,0.0001341,53.2169,217.0525,93.5123,266.6022,9.2623e-05,1.187e-05,0.0,0 STARLINK-3357,1 51150U 22005AY  24176.34220747  .00001187  00000-0  92623-4 0  9993,2 51150  53.2169 217.0525 0001341  93.5123 266.6022 15.08841224134641,6917.877,95.437,540.669,538.814,0.0
51150.0,STARLINK-3357,PAYLOAD,2024-06-25 11:14:20,15.08838319,0.0001293,53.2163,211.9979,82.5614,277.5525,0.0001043,1.372e-05,0.0,0 STARLINK-3357,1 51150U 22005AY  24177.46829115  .00001372  00000-0  10430-3 0  9992,2 51150  53.2163 211.9979 0001293  82.5614 277.5525 15.08838319135922,6917.886,95.438,540.645,538.856,0.0
51150.0,STARLINK-3357,PAYLOAD,2024-06-26 09:29:44,15.08842563,0.0001346,53.216,207.8335,85.5096,274.6049,9.6188e-05,1.243e-05,0.0,0 STARLINK-3357,1 51150U 22005AY  24178.39564894  .00001243  00000-0  96188-4 0  9997,2 51150  53.2160 207.8335 0001346  85.5096 274.6049 15.08842563134952,6917.873,95.437,540.669,538.806,0.0
51150.0,STARLINK-3357,PAYLOAD,2024-06-27 09:20:31,15.08838118,0.0001345,53.2158,203.3734,83.5816,276.5329,5.6619e-05,6.13e-06,0.0,0 STARLINK-3357,1 51150U 22005AY  24179.38925369  .00000613  00000-0  56619-4 0  9990,2 51150  53.2158 203.3734 0001345  83.5816 276.5329 15.08838118136214,6917.886,95.438,540.682,538.821,0.0
51150.0,STARLINK-3357,PAYLOAD,2024-06-27 18:52:50,15.08838631,0.0001329,53.2156,201.5897,85.1289,274.9854,5.13e-05,5.29e-06,0.0,0 STARLINK-3357,1 51150U 22005AY  24179.78669410  .00000529  00000-0  51300-4 0  9994,2 51150  53.2156 201.5897 0001329  85.1289 274.9854 15.08838631135164,6917.885,95.438,540.669,538.83,0.0
51150.0,STARLINK-3357,PAYLOAD,2024-06-28 07:35:55,15.08843054,0.0001288,53.2153,199.2105,84.3892,275.7247,9.147e-05,1.168e-05,0.0,0 STARLINK-3357,1 51150U 22005AY  24180.31661056  .00001168  00000-0  91470-4 0  9995,2 51150  53.2153 199.2105 0001288  84.3892 275.7247 15.08843054135240,6917.871,95.437,540.627,538.845,0.0
51150.0,STARLINK-3357,PAYLOAD,2024-06-29 10:37:28,15.08846953,0.0001332,53.2146,194.1556,82.6428,277.4716,0.00021659,3.161e-05,0.0,0 STARLINK-3357,1 51150U 22005AY  24181.44268846  .00003161  00000-0  21659-3 0  9996,2 51150  53.2146 194.1556 0001332  82.6428 277.4716 15.08846953136525,6917.859,95.437,540.646,538.803,0.0
51150.0,STARLINK-3357,PAYLOAD,2024-06-30 04:06:43,15.08840149,0.0001414,53.215,190.8819,91.1809,268.9345,3.0696e-05,2.01e-06,0.0,0 STARLINK-3357,1 51150U 22005AY  24182.17133113  .00000201  00000-0  30696-4 0  9999,2 51150  53.2150 190.8819 0001414  91.1809 268.9345 15.08840149136630,6917.88,95.438,540.723,538.767,0.0
51150.0,STARLINK-3357,PAYLOAD,2024-06-30 10:28:15,15.08835944,0.0001399,53.216,189.6934,91.2505,268.8647,-1.9543e-05,-5.99e-06,0.0,0 STARLINK-3357,1 51150U 22005AY  24182.43629561 -.00000599  00000-0 -19543-4 0  9995,2 51150  53.2160 189.6934 0001399  91.2505 268.8647 15.08835944135563,6917.893,95.438,540.726,538.79,0.0
51150.0,STARLINK-3357,PAYLOAD,2024-07-01 07:08:16,15.0883871,0.0001305,53.2156,185.8292,88.4927,271.6214,5.5848e-05,6.01e-06,0.0,0 STARLINK-3357,1 51150U 22005AY  24183.29741194  .00000601  00000-0  55848-4 0  9997,2 51150  53.2156 185.8292 0001305  88.4927 271.6214 15.08838710136800,6917.884,95.438,540.652,538.847,0.0
51150.0,STARLINK-3357,PAYLOAD,2024-07-01 23:02:07,15.08837616,0.000142,53.2164,182.857,92.0679,268.0476,7.1511e-05,8.5e-06,0.0,0 STARLINK-3357,1 51150U 22005AY  24183.95981256  .00000850  00000-0  71511-4 0  9996,2 51150  53.2164 182.8570 0001420  92.0679 268.0476 15.08837616135799,6917.888,95.438,540.735,538.77,0.0
